     2.11           NAVIGATION DATA     GPS(GPS)            RINEX VERSION / TYPE
cnvtToRINEX 2.30.0  convertToRINEX OPR  12-May-16 00:44 UTC PGM / RUN BY / DATE 
----------------------------------------------------------- COMMENT             
    0.2049D-07  0.2235D-07 -0.1192D-06 -0.1192D-06          ION ALPHA           
    0.1229D+06  0.1147D+06 -0.1966D+06 -0.1311D+06          ION BETA            
    0.000000000000D+00-0.444089209850D-14   319488     1844 DELTA-UTC: A0,A1,T,W
    16                                                      LEAP SECONDS        
                                                            END OF HEADER       
14 15 05 11 18 00  0.0 0.642840750515D-04-0.284217094304D-11 0.000000000000D+00
    0.690000000000D+02 0.122187500000D+02 0.474984070707D-08-0.163359756544D+00
    0.571832060814D-06 0.807052967139D-02 0.628270208836D-05 0.515358974075D+04
    0.151200000000D+06-0.838190317154D-07 0.488197709748D+00 0.279396772385D-07
    0.967057219872D+00 0.265500000000D+03-0.197704437497D+01-0.837142013182D-08
   -0.123933733766D-09 0.100000000000D+01 0.184400000000D+04 0.000000000000D+00
    0.340000000000D+01 0.000000000000D+00-0.931322574615D-08 0.690000000000D+02
    0.144018000000D+06 0.400000000000D+01 0.000000000000D+00 0.000000000000D+00
23 15 05 11 18 00  0.0-0.107681378722D-03-0.250111042988D-11 0.000000000000D+00
    0.360000000000D+02 0.117500000000D+02 0.511164149181D-08-0.127188444917D+01
    0.508502125740D-06 0.101223154925D-01 0.562332570553D-05 0.515361461067D+04
    0.151200000000D+06 0.156462192535D-06 0.416594325626D+00-0.689178705215D-07
    0.948900623211D+00 0.258437500000D+03-0.268721970912D+01-0.838106339065D-08
   -0.321441960776D-11 0.100000000000D+01 0.184400000000D+04 0.000000000000D+00
    0.240000000000D+01 0.000000000000D+00-0.200234353542D-07 0.360000000000D+02
    0.144018000000D+06 0.400000000000D+01 0.000000000000D+00 0.000000000000D+00
29 15 05 11 18 00  0.0 0.609855167568D-03 0.238742359215D-11 0.000000000000D+00
    0.510000000000D+02-0.450937500000D+02 0.438161108312D-08 0.258721830846D+01
   -0.238046050072D-05 0.129901466426D-02 0.495836138725D-05 0.515376528740D+04
    0.151200000000D+06 0.111758708954D-07-0.267578017543D+01-0.186264514923D-08
    0.973263638120D+00 0.290656250000D+03-0.635788030095D+00-0.813462455405D-08
   -0.123219418298D-09 0.100000000000D+01 0.184400000000D+04 0.000000000000D+00
    0.240000000000D+01 0.000000000000D+00-0.977888703346D-08 0.510000000000D+02
    0.144018000000D+06 0.400000000000D+01 0.000000000000D+00 0.000000000000D+00
27 15 05 11 18 00  0.0 0.712182372808D-04 0.272848410532D-11 0.000000000000D+00
    0.770000000000D+02-0.519062500000D+02 0.461697802995D-08-0.563644049466D-02
   -0.285170972347D-05 0.241043046117D-02 0.477768480778D-05 0.515368784904D+04
    0.151200000000D+06 0.186264514923D-08-0.273278603777D+01-0.745058059692D-08
    0.967335174307D+00 0.287281250000D+03 0.196269655282D+00-0.831320342115D-08
   -0.185364864048D-09 0.100000000000D+01 0.184400000000D+04 0.000000000000D+00
    0.240000000000D+01 0.000000000000D+00 0.139698386192D-08 0.770000000000D+02
    0.146172000000D+06 0.400000000000D+01 0.000000000000D+00 0.000000000000D+00
 9 15 05 11 17 59 44.0-0.154126901180D-03-0.659383658785D-11 0.000000000000D+00
    0.700000000000D+01 0.128750000000D+02 0.492841957417D-08-0.743425090708D+00
    0.406056642532D-06 0.448308768682D-03 0.601820647717D-05 0.515359572220D+04
    0.151184000000D+06 0.465661287308D-07 0.407835764865D+00 0.745058059692D-08
    0.957872063422D+00 0.258968750000D+03 0.259762504832D+01-0.833820446254D-08
   -0.101432796512D-09 0.100000000000D+01 0.184400000000D+04 0.000000000000D+00
    0.240000000000D+01 0.000000000000D+00 0.465661287308D-09 0.700000000000D+01
    0.146502000000D+06 0.400000000000D+01 0.000000000000D+00 0.000000000000D+00
19 15 05 11 18 00  0.0-0.510109588504D-03-0.113686837722D-11 0.000000000000D+00
    0.440000000000D+02-0.552812500000D+02 0.455197532233D-08-0.873176071585D+00
   -0.290758907795D-05 0.113397855312D-01 0.527501106262D-05 0.515372169876D+04
    0.151200000000D+06 0.225380063057D-06-0.263548181771D+01 0.800937414169D-07
    0.969474335046D+00 0.280812500000D+03 0.542080278562D+00-0.828320217148D-08
   -0.209294432239D-09 0.100000000000D+01 0.184400000000D+04 0.000000000000D+00
    0.240000000000D+01 0.000000000000D+00-0.153668224812D-07 0.440000000000D+02
    0.149772000000D+06 0.400000000000D+01 0.000000000000D+00 0.000000000000D+00
